{"type": "FeatureCollection", "features": [ {"type": "Feature", "properties": {"norad_id": 66896, "name": "STARLINK-35791", "group": "last-30-days", "lat": 12.57094727446057, "lon": -125.24600862429547, "alt_km": 300.0164429535589, "timestamp": "2025-12-14T14:39:28.134330+00:00", "meta": {"OBJECT_NAME": "STARLINK-35791", "OBJECT_ID": "2025-283U", "EPOCH": "2025-12-13T20:00:03.000384", "MEAN_MOTION": 15.92578494, "ECCENTRICITY": 7.95e-05, "INCLINATION": 53.1545, "RA_OF_ASC_NODE": 68.3394, "ARG_OF_PERICENTER": 62.9744, "MEAN_ANOMALY": 324.4956, "EPHEMERIS_TYPE": 0, "CLASSIFICATION_TYPE": "U", "NORAD_CAT_ID": 66896, "ELEMENT_SET_NO": 999, "REV_AT_EPOCH": 260, "BSTAR": -0.0039361419, "MEAN_MOTION_DOT": -0.01374818, "MEAN_MOTION_DDOT": 0.0005488158}, "tle": {"line1": "1 66896U 25283U   25347.83336806 -.01374818  54882-3 -39361-2 0  9991", "line2": "2 66896  53.1545  68.3394 0000795  62.9744 324.4956 15.92578494  2601"}}, "geometry": {"type": "Point", "coordinates": [-125.24600862429547, 12.57094727446057]}}, {"type": "Feature", "properties": {"norad_id": 66897, "name": "STARLINK-36079", "group": "last-30-days", "lat": 8.422781814384418, "lon": -122.00547656804522, "alt_km": 300.55025441579073, "timestamp": "2025-12-14T14:39:28.134340+00:00", "meta": {"OBJECT_NAME": "STARLINK-36079", "OBJECT_ID": "2025-283V", "EPOCH": "2025-12-13T20:00:03.000384", "MEAN_MOTION": 15.92710643, "ECCENTRICITY": 7.525e-05, "INCLINATION": 53.1545, "RA_OF_ASC_NODE": 68.3294, "ARG_OF_PERICENTER": 59.1805, "MEAN_ANOMALY": 333.2505, "EPHEMERIS_TYPE": 0, "CLASSIFICATION_TYPE": "U", "NORAD_CAT_ID": 66897, "ELEMENT_SET_NO": 999, "REV_AT_EPOCH": 260, "BSTAR": -0.0040441841, "MEAN_MOTION_DOT": -0.01421755, "MEAN_MOTION_DDOT": 0.00058424756}, "tle": {"line1": "1 66897U 25283V   25347.83336806 -.01421755  58425-3 -40442-2 0  9994", "line2": "2 66897  53.1545  68.3294 0000752  59.1805 333.2505 15.92710643  2602"}}, "geometry": {"type": "Point", "coordinates": [-122.00547656804522, 8.422781814384418]}}, {"type": "Feature", "properties": {"norad_id": 66898, "name": "STARLINK-36065", "group": "last-30-days", "lat": 6.229071225012391, "lon": -120.3314725514444, "alt_km": 300.87536094491315, "timestamp": "2025-12-14T14:39:28.134351+00:00", "meta": {"OBJECT_NAME": "STARLINK-36065", "OBJECT_ID": "2025-283W", "EPOCH": "2025-12-13T20:00:03.000384", "MEAN_MOTION": 15.92775303, "ECCENTRICITY": 8.535e-05, "INCLINATION": 53.1542, "RA_OF_ASC_NODE": 68.3234, "ARG_OF_PERICENTER": 56.2933, "MEAN_ANOMALY": 338.7622, "EPHEMERIS_TYPE": 0, "CLASSIFICATION_TYPE": "U", "NORAD_CAT_ID": 66898, "ELEMENT_SET_NO": 999, "REV_AT_EPOCH": 260, "BSTAR": -0.004104146, "MEAN_MOTION_DOT": -0.01447413, "MEAN_MOTION_DDOT": 0.00060403334}, "tle": {"line1": "1 66898U 25283W   25347.83336806 -.01447413  60403-3 -41041-2 0  9999", "line2": "2 66898  53.1542  68.3234 0000853  56.2933 338.7622 15.92775303  2600"}}, "geometry": {"type": "Point", "coordinates": [-120.3314725514444, 6.229071225012391]}}, {"type": "Feature", "properties": {"norad_id": 66899, "name": "STARLINK-36064", "group": "last-30-days", "lat": 4.182698370483964, "lon": -118.78576512271187, "alt_km": 301.1295274937838, "timestamp": "2025-12-14T14:39:28.134361+00:00", "meta": {"OBJECT_NAME": "STARLINK-36064", "OBJECT_ID": "2025-283X", "EPOCH": "2025-12-13T20:00:03.000384", "MEAN_MOTION": 15.9284472, "ECCENTRICITY": 9.657e-05, "INCLINATION": 53.154, "RA_OF_ASC_NODE": 68.3182, "ARG_OF_PERICENTER": 62.1629, "MEAN_ANOMALY": 335.3477, "EPHEMERIS_TYPE": 0, "CLASSIFICATION_TYPE": "U", "NORAD_CAT_ID": 66899, "ELEMENT_SET_NO": 999, "REV_AT_EPOCH": 254, "BSTAR": -0.0042123597, "MEAN_MOTION_DOT": -0.01490448, "MEAN_MOTION_DDOT": 0.00063770441}, "tle": {"line1": "1 66899U 25283X   25347.83336806 -.01490448  63770-3 -42124-2 0  9999", "line2": "2 66899  53.1540  68.3182 0000965  62.1629 335.3477 15.92844720  2547"}}, "geometry": {"type": "Point", "coordinates": [-118.78576512271187, 4.182698370483964]}}, {"type": "Feature", "properties": {"norad_id": 66900, "name": "STARLINK-36074", "group": "last-30-days", "lat": 2.04233325304498, "lon": -117.17991730246214, "alt_km": 301.48619685949416, "timestamp": "2025-12-14T14:39:28.134373+00:00", "meta": {"OBJECT_NAME": "STARLINK-36074", "OBJECT_ID": "2025-283Y", "EPOCH": "2025-12-13T20:00:03.000384", "MEAN_MOTION": 15.92920526, "ECCENTRICITY": 8.428e-05, "INCLINATION": 53.1541, "RA_OF_ASC_NODE": 68.3128, "ARG_OF_PERICENTER": 58.94, "MEAN_ANOMALY": 341.1599, "EPHEMERIS_TYPE": 0, "CLASSIFICATION_TYPE": "U", "NORAD_CAT_ID": 66900, "ELEMENT_SET_NO": 999, "REV_AT_EPOCH": 260, "BSTAR": -0.004366613, "MEAN_MOTION_DOT": -0.01550371, "MEAN_MOTION_DDOT": 0.00068593413}, "tle": {"line1": "1 66900U 25283Y   25347.83336806 -.01550371  68593-3 -43666-2 0  9994", "line2": "2 66900  53.1541  68.3128 0000842  58.9400 341.1599 15.92920526  2601"}}, "geometry": {"type": "Point", "coordinates": [-117.17991730246214, 2.04233325304498]}}, {"type": "Feature", "properties": {"norad_id": 66901, "name": "STARLINK-36043", "group": "last-30-days", "lat": 0.15043511734598417, "lon": -115.76523116420725, "alt_km": 301.47355128937215, "timestamp": "2025-12-14T14:39:28.134383+00:00", "meta": {"OBJECT_NAME": "STARLINK-36043", "OBJECT_ID": "2025-283Z", "EPOCH": "2025-12-13T20:00:03.000384", "MEAN_MOTION": 15.92974163, "ECCENTRICITY": 0.00010435, "INCLINATION": 53.1543, "RA_OF_ASC_NODE": 68.3081, "ARG_OF_PERICENTER": 47.8531, "MEAN_ANOMALY": 354.5068, "EPHEMERIS_TYPE": 0, "CLASSIFICATION_TYPE": "U", "NORAD_CAT_ID": 66901, "ELEMENT_SET_NO": 999, "REV_AT_EPOCH": 260, "BSTAR": -0.0044225758, "MEAN_MOTION_DOT": -0.01574377, "MEAN_MOTION_DDOT": 0.00070590452}, "tle": {"line1": "1 66901U 25283Z   25347.83336806 -.01574377  70590-3 -44226-2 0  9990", "line2": "2 66901  53.1543  68.3081 0001043  47.8531 354.5068 15.92974163  2603"}}, "geometry": {"type": "Point", "coordinates": [-115.76523116420725, 0.15043511734598417]}}, {"type": "Feature", "properties": {"norad_id": 66902, "name": "STARLINK-35983", "group": "last-30-days", "lat": -2.135468614989675, "lon": -114.05567662434584, "alt_km": 302.01353236682553, "timestamp": "2025-12-14T14:39:28.134395+00:00", "meta": {"OBJECT_NAME": "STARLINK-35983", "OBJECT_ID": "2025-283AA", "EPOCH": "2025-12-13T20:00:03.000384", "MEAN_MOTION": 15.9303436, "ECCENTRICITY": 7.882e-05, "INCLINATION": 53.154, "RA_OF_ASC_NODE": 68.3027, "ARG_OF_PERICENTER": 56.7331, "MEAN_ANOMALY": 348.3975, "EPHEMERIS_TYPE": 0, "CLASSIFICATION_TYPE": "U", "NORAD_CAT_ID": 66902, "ELEMENT_SET_NO": 999, "REV_AT_EPOCH": 260, "BSTAR": -0.0045159905, "MEAN_MOTION_DOT": -0.01612174, "MEAN_MOTION_DDOT": 0.00073774581}, "tle": {"line1": "1 66902U 25283AA  25347.83336806 -.01612174  73775-3 -45160-2 0  9995", "line2": "2 66902  53.1540  68.3027 0000788  56.7331 348.3975 15.93034360  2608"}}, "geometry": {"type": "Point", "coordinates": [-114.05567662434584, -2.135468614989675]}}, {"type": "Feature", "properties": {"norad_id": 66903, "name": "STARLINK-36077", "group": "last-30-days", "lat": -3.9801066902451177, "lon": -112.67216273644594, "alt_km": 302.185060493518, "timestamp": "2025-12-14T14:39:28.134407+00:00", "meta": {"OBJECT_NAME": "STARLINK-36077", "OBJECT_ID": "2025-283AB", "EPOCH": "2025-12-13T20:00:03.000384", "MEAN_MOTION": 15.93080365, "ECCENTRICITY": 8.231e-05, "INCLINATION": 53.1544, "RA_OF_ASC_NODE": 68.2979, "ARG_OF_PERICENTER": 59.2733, "MEAN_ANOMALY": 348.0661, "EPHEMERIS_TYPE": 0, "CLASSIFICATION_TYPE": "U", "NORAD_CAT_ID": 66903, "ELEMENT_SET_NO": 999, "REV_AT_EPOCH": 260, "BSTAR": -0.0045474803, "MEAN_MOTION_DOT": -0.01627146, "MEAN_MOTION_DDOT": 0.00075071843}, "tle": {"line1": "1 66903U 25283AB  25347.83336806 -.01627146  75072-3 -45475-2 0  9992", "line2": "2 66903  53.1544  68.2979 0000823  59.2733 348.0661 15.93080365  2607"}}, "geometry": {"type": "Point", "coordinates": [-112.67216273644594, -3.9801066902451177]}}, {"type": "Feature", "properties": {"norad_id": 66904, "name": "STARLINK-36059", "group": "last-30-days", "lat": -5.931874448827923, "lon": -111.19940708268695, "alt_km": 302.3202343680805, "timestamp": "2025-12-14T14:39:28.134417+00:00", "meta": {"OBJECT_NAME": "STARLINK-36059", "OBJECT_ID": "2025-283AC", "EPOCH": "2025-12-13T20:00:03.000384", "MEAN_MOTION": 15.93119809, "ECCENTRICITY": 7.731e-05, "INCLINATION": 53.154, "RA_OF_ASC_NODE": 68.2929, "ARG_OF_PERICENTER": 59.9129, "MEAN_ANOMALY": 349.7692, "EPHEMERIS_TYPE": 0, "CLASSIFICATION_TYPE": "U", "NORAD_CAT_ID": 66904, "ELEMENT_SET_NO": 999, "REV_AT_EPOCH": 260, "BSTAR": -0.0045486901, "MEAN_MOTION_DOT": -0.01630899, "MEAN_MOTION_DDOT": 0.00075419768}, "tle": {"line1": "1 66904U 25283AC  25347.83336806 -.01630899  75420-3 -45487-2 0  9992", "line2": "2 66904  53.1540  68.2929 0000773  59.9129 349.7692 15.93119809  2607"}}, "geometry": {"type": "Point", "coordinates": [-111.19940708268695, -5.931874448827923]}}, {"type": "Feature", "properties": {"norad_id": 66905, "name": "STARLINK-36075", "group": "last-30-days", "lat": -7.618024720873927, "lon": -109.91629008500148, "alt_km": 302.49902414047665, "timestamp": "2025-12-14T14:39:28.134427+00:00", "meta": {"OBJECT_NAME": "STARLINK-36075", "OBJECT_ID": "2025-283AD", "EPOCH": "2025-12-13T20:00:03.000384", "MEAN_MOTION": 15.93164933, "ECCENTRICITY": 9.28e-05, "INCLINATION": 53.1543, "RA_OF_ASC_NODE": 68.2887, "ARG_OF_PERICENTER": 63.6148, "MEAN_ANOMALY": 348.0873, "EPHEMERIS_TYPE": 0, "CLASSIFICATION_TYPE": "U", "NORAD_CAT_ID": 66905, "ELEMENT_SET_NO": 999, "REV_AT_EPOCH": 260, "BSTAR": -0.0045820566, "MEAN_MOTION_DOT": -0.01646574, "MEAN_MOTION_DDOT": 0.00076791643}, "tle": {"line1": "1 66905U 25283AD  25347.83336806 -.01646574  76792-3 -45821-2 0  9995", "line2": "2 66905  53.1543  68.2887 0000928  63.6148 348.0873 15.93164933  2600"}}, "geometry": {"type": "Point", "coordinates": [-109.91629008500148, -7.618024720873927]}}]}